[
    {
        "OBJECT_NAME": "COSMOS 2219",
        "OBJECT_ID": "1992-076A",
        "EPOCH": "2026-06-13T17:23:14.822304",
        "MEAN_MOTION": 14.14097046,
        "ECCENTRICITY": 0.0016442,
        "INCLINATION": 71.0576,
        "RA_OF_ASC_NODE": 177.3108,
        "ARG_OF_PERICENTER": 49.8192,
        "MEAN_ANOMALY": 310.4367,
        "EPHEMERIS_TYPE": 0,
        "CLASSIFICATION_TYPE": "U",
        "NORAD_CAT_ID": 22219,
        "ELEMENT_SET_NO": 999,
        "REV_AT_EPOCH": 73195,
        "BSTAR": 0.00012417,
        "MEAN_MOTION_DOT": 1.9e-06,
        "MEAN_MOTION_DDOT": 0
    },
    {
        "OBJECT_NAME": "SL-16 R/B",
        "OBJECT_ID": "1992-076B",
        "EPOCH": "2026-06-13T20:39:11.113056",
        "MEAN_MOTION": 14.16871235,
        "ECCENTRICITY": 0.0014594,
        "INCLINATION": 71.0003,
        "RA_OF_ASC_NODE": 345.7893,
        "ARG_OF_PERICENTER": 303.0062,
        "MEAN_ANOMALY": 156.9146,
        "EPHEMERIS_TYPE": 0,
        "CLASSIFICATION_TYPE": "U",
        "NORAD_CAT_ID": 22220,
        "ELEMENT_SET_NO": 999,
        "REV_AT_EPOCH": 73545,
        "BSTAR": 3.1269e-05,
        "MEAN_MOTION_DOT": 1.5e-07,
        "MEAN_MOTION_DDOT": 0
    },
    {
        "OBJECT_NAME": "COSMOS 2221",
        "OBJECT_ID": "1992-080A",
        "EPOCH": "2026-06-13T19:06:02.144160",
        "MEAN_MOTION": 14.9652561,
        "ECCENTRICITY": 0.0013023,
        "INCLINATION": 82.503,
        "RA_OF_ASC_NODE": 187.0138,
        "ARG_OF_PERICENTER": 224.4811,
        "MEAN_ANOMALY": 135.5367,
        "EPHEMERIS_TYPE": 0,
        "CLASSIFICATION_TYPE": "U",
        "NORAD_CAT_ID": 22236,
        "ELEMENT_SET_NO": 999,
        "REV_AT_EPOCH": 79516,
        "BSTAR": 0.00011428,
        "MEAN_MOTION_DOT": 1.326e-05,
        "MEAN_MOTION_DDOT": 0
    },
    {
        "OBJECT_NAME": "SL-16 R/B",
        "OBJECT_ID": "1992-093B",
        "EPOCH": "2026-06-13T17:00:54.794592",
        "MEAN_MOTION": 14.15462839,
        "ECCENTRICITY": 0.0004152,
        "INCLINATION": 71.0199,
        "RA_OF_ASC_NODE": 162.6934,
        "ARG_OF_PERICENTER": 194.208,
        "MEAN_ANOMALY": 165.8927,
        "EPHEMERIS_TYPE": 0,
        "CLASSIFICATION_TYPE": "U",
        "NORAD_CAT_ID": 22285,
        "ELEMENT_SET_NO": 999,
        "REV_AT_EPOCH": 72674,
        "BSTAR": -0.00012389,
        "MEAN_MOTION_DOT": -2.9e-06,
        "MEAN_MOTION_DDOT": 0
    },
    {
        "OBJECT_NAME": "COSMOS 2228",
        "OBJECT_ID": "1992-094A",
        "EPOCH": "2026-06-13T19:31:43.790592",
        "MEAN_MOTION": 14.97575658,
        "ECCENTRICITY": 0.0017216,
        "INCLINATION": 82.5173,
        "RA_OF_ASC_NODE": 145.274,
        "ARG_OF_PERICENTER": 344.0551,
        "MEAN_ANOMALY": 16.0127,
        "EPHEMERIS_TYPE": 0,
        "CLASSIFICATION_TYPE": "U",
        "NORAD_CAT_ID": 22286,
        "ELEMENT_SET_NO": 999,
        "REV_AT_EPOCH": 79044,
        "BSTAR": 0.00016319,
        "MEAN_MOTION_DOT": 1.937e-05,
        "MEAN_MOTION_DDOT": 0
    },
    {
        "OBJECT_NAME": "SL-16 R/B",
        "OBJECT_ID": "1993-016B",
        "EPOCH": "2026-06-13T19:55:15.532032",
        "MEAN_MOTION": 14.15312059,
        "ECCENTRICITY": 0.0010461,
        "INCLINATION": 71.0083,
        "RA_OF_ASC_NODE": 13.2589,
        "ARG_OF_PERICENTER": 188.1516,
        "MEAN_ANOMALY": 171.9438,
        "EPHEMERIS_TYPE": 0,
        "CLASSIFICATION_TYPE": "U",
        "NORAD_CAT_ID": 22566,
        "ELEMENT_SET_NO": 999,
        "REV_AT_EPOCH": 71577,
        "BSTAR": 0.00019204,
        "MEAN_MOTION_DOT": 3.27e-06,
        "MEAN_MOTION_DDOT": 0
    },
    {
        "OBJECT_NAME": "COSMOS 2242",
        "OBJECT_ID": "1993-024A",
        "EPOCH": "2026-06-13T18:31:06.970080",
        "MEAN_MOTION": 14.96894345,
        "ECCENTRICITY": 0.0015671,
        "INCLINATION": 82.5179,
        "RA_OF_ASC_NODE": 174.8107,
        "ARG_OF_PERICENTER": 348.2458,
        "MEAN_ANOMALY": 11.8396,
        "EPHEMERIS_TYPE": 0,
        "CLASSIFICATION_TYPE": "U",
        "NORAD_CAT_ID": 22626,
        "ELEMENT_SET_NO": 999,
        "REV_AT_EPOCH": 79476,
        "BSTAR": 0.00013901,
        "MEAN_MOTION_DOT": 1.624e-05,
        "MEAN_MOTION_DDOT": 0
    },
    {
        "OBJECT_NAME": "SL-16 R/B",
        "OBJECT_ID": "1993-059B",
        "EPOCH": "2026-06-13T17:58:47.212320",
        "MEAN_MOTION": 14.1724757,
        "ECCENTRICITY": 0.0015126,
        "INCLINATION": 70.9886,
        "RA_OF_ASC_NODE": 168.554,
        "ARG_OF_PERICENTER": 59.9219,
        "MEAN_ANOMALY": 300.3403,
        "EPHEMERIS_TYPE": 0,
        "CLASSIFICATION_TYPE": "U",
        "NORAD_CAT_ID": 22803,
        "ELEMENT_SET_NO": 999,
        "REV_AT_EPOCH": 69314,
        "BSTAR": 0.00011222,
        "MEAN_MOTION_DOT": 1.79e-06,
        "MEAN_MOTION_DDOT": 0
    },
    {
        "OBJECT_NAME": "ARIANE 40 R/B",
        "OBJECT_ID": "1993-061H",
        "EPOCH": "2026-06-13T18:48:41.681664",
        "MEAN_MOTION": 14.32906609,
        "ECCENTRICITY": 0.0010689,
        "INCLINATION": 98.4819,
        "RA_OF_ASC_NODE": 231.7115,
        "ARG_OF_PERICENTER": 6.5534,
        "MEAN_ANOMALY": 353.5788,
        "EPHEMERIS_TYPE": 0,
        "CLASSIFICATION_TYPE": "U",
        "NORAD_CAT_ID": 22830,
        "ELEMENT_SET_NO": 999,
        "REV_AT_EPOCH": 70786,
        "BSTAR": 7.9493e-05,
        "MEAN_MOTION_DOT": 1.74e-06,
        "MEAN_MOTION_DDOT": 0
    },
    {
        "OBJECT_NAME": "COSMOS 2278",
        "OBJECT_ID": "1994-023A",
        "EPOCH": "2026-06-13T20:27:12.267648",
        "MEAN_MOTION": 14.14396892,
        "ECCENTRICITY": 0.00106,
        "INCLINATION": 71.0548,
        "RA_OF_ASC_NODE": 333.9027,
        "ARG_OF_PERICENTER": 247.0225,
        "MEAN_ANOMALY": 112.978,
        "EPHEMERIS_TYPE": 0,
        "CLASSIFICATION_TYPE": "U",
        "NORAD_CAT_ID": 23087,
        "ELEMENT_SET_NO": 999,
        "REV_AT_EPOCH": 65840,
        "BSTAR": 0.00014273,
        "MEAN_MOTION_DOT": 2.26e-06,
        "MEAN_MOTION_DDOT": 0
    },
    {
        "OBJECT_NAME": "SL-16 R/B",
        "OBJECT_ID": "1994-023B",
        "EPOCH": "2026-06-13T15:26:30.007968",
        "MEAN_MOTION": 14.15022922,
        "ECCENTRICITY": 0.0003005,
        "INCLINATION": 70.9994,
        "RA_OF_ASC_NODE": 229.3737,
        "ARG_OF_PERICENTER": 189.5961,
        "MEAN_ANOMALY": 170.5105,
        "EPHEMERIS_TYPE": 0,
        "CLASSIFICATION_TYPE": "U",
        "NORAD_CAT_ID": 23088,
        "ELEMENT_SET_NO": 999,
        "REV_AT_EPOCH": 65966,
        "BSTAR": 0.00019644,
        "MEAN_MOTION_DOT": 3.33e-06,
        "MEAN_MOTION_DDOT": 0
    },
    {
        "OBJECT_NAME": "SL-16 R/B",
        "OBJECT_ID": "1994-074B",
        "EPOCH": "2026-06-13T20:30:15.287040",
        "MEAN_MOTION": 14.7949979,
        "ECCENTRICITY": 0.000507,
        "INCLINATION": 97.6992,
        "RA_OF_ASC_NODE": 191.7141,
        "ARG_OF_PERICENTER": 267.7001,
        "MEAN_ANOMALY": 265.1192,
        "EPHEMERIS_TYPE": 0,
        "CLASSIFICATION_TYPE": "U",
        "NORAD_CAT_ID": 23343,
        "ELEMENT_SET_NO": 999,
        "REV_AT_EPOCH": 70146,
        "BSTAR": 5.8854e-05,
        "MEAN_MOTION_DOT": 3.91e-06,
        "MEAN_MOTION_DDOT": 0
    },
    {
        "OBJECT_NAME": "SL-16 R/B",
        "OBJECT_ID": "1994-077B",
        "EPOCH": "2026-06-13T15:47:48.656256",
        "MEAN_MOTION": 14.15571761,
        "ECCENTRICITY": 0.0002784,
        "INCLINATION": 70.9807,
        "RA_OF_ASC_NODE": 150.5867,
        "ARG_OF_PERICENTER": 330.3606,
        "MEAN_ANOMALY": 29.7358,
        "EPHEMERIS_TYPE": 0,
        "CLASSIFICATION_TYPE": "U",
        "NORAD_CAT_ID": 23405,
        "ELEMENT_SET_NO": 999,
        "REV_AT_EPOCH": 62981,
        "BSTAR": -2.5069e-05,
        "MEAN_MOTION_DOT": -9.7e-07,
        "MEAN_MOTION_DDOT": 0
    }
]